[{"OBJECT_NAME":"STARLINK-35000","OBJECT_ID":"2025-184F","EPOCH":"2026-03-09T15:57:10.240704","MEAN_MOTION":15.05651833,"ECCENTRICITY":0.00014184,"INCLINATION":97.6025,"RA_OF_ASC_NODE":122.5825,"ARG_OF_PERICENTER":119.6372,"MEAN_ANOMALY":240.4997,"EPHEMERIS_TYPE":0,"CLASSIFICATION_TYPE":"U","NORAD_CAT_ID":65278,"ELEMENT_SET_NO":999,"REV_AT_EPOCH":3129,"BSTAR":0.00025453426,"MEAN_MOTION_DOT":3.614e-5,"MEAN_MOTION_DDOT":0},{"OBJECT_NAME":"CZ-2C DEB","OBJECT_ID":"2026-009D","EPOCH":"2026-03-09T18:06:55.672992","MEAN_MOTION":15.16841441,"ECCENTRICITY":0.00999045,"INCLINATION":97.6656,"RA_OF_ASC_NODE":143.8643,"ARG_OF_PERICENTER":42.8877,"MEAN_ANOMALY":318.0091,"EPHEMERIS_TYPE":0,"CLASSIFICATION_TYPE":"U","NORAD_CAT_ID":67587,"ELEMENT_SET_NO":999,"REV_AT_EPOCH":810,"BSTAR":0.0023439167,"MEAN_MOTION_DOT":0.00052682,"MEAN_MOTION_DDOT":0}]
